start=new Date('2023-02-26T00:00:00.000Z').valueOf();
sats=[{"FILE":"3837605","CLASSIFICATION_TYPE":"U","TLE_LINE1":"1 53403U 22097R   23056.28142584  .00001481  00000-0  11114-3 0  9990","COUNTRY_CODE":"US","EPOCH":"2023-02-25T06:45:15.192576","TLE_LINE2":"2 53403  53.2177  59.9558 0001537  99.0108 261.1058 15.08838886 31187","REF_FRAME":"TEME","PERIAPSIS":"538.686","CENTER_NAME":"EARTH","OBJECT_ID":"2022-097R","RCS_SIZE":"LARGE","LAUNCH_DATE":"2022-08-10","GP_ID":"226859368","REV_AT_EPOCH":"3118","INCLINATION":"53.2177","PERIOD":"95.438","MEAN_ANOMALY":"261.1058","MEAN_MOTION":"15.08838886","MEAN_MOTION_DOT":"0.00001481","ELEMENT_SET_NO":"999","SEMIMAJOR_AXIS":"6917.884","NORAD_CAT_ID":"53403","TIME_SYSTEM":"UTC","DECAY_DATE":null,"MEAN_ELEMENT_THEORY":"SGP4","APOAPSIS":"540.812","OBJECT_NAME":"STARLINK-4507","SITE":"AFETR","MEAN_MOTION_DDOT":"0.0000000000000","ARG_OF_PERICENTER":"99.0108","EPHEMERIS_TYPE":"0","ECCENTRICITY":"0.00015370","BSTAR":"0.00011114000000","RA_OF_ASC_NODE":"59.9558","OBJECT_TYPE":"PAYLOAD"},{"FILE":"3837605","CLASSIFICATION_TYPE":"U","EPOCH":"2023-02-25T10:59:34.006272","COUNTRY_CODE":"US","TLE_LINE1":"1 53404U 22097S   23056.45803248  .00001960  00000-0  14122-3 0  9995","PERIAPSIS":"538.707","REF_FRAME":"TEME","TLE_LINE2":"2 53404  53.2193  49.1639 0001499  85.8562 274.2602 15.08840570 31342","RCS_SIZE":"LARGE","GP_ID":"226859382","LAUNCH_DATE":"2022-08-10","CENTER_NAME":"EARTH","OBJECT_ID":"2022-097S","PERIOD":"95.438","MEAN_ANOMALY":"274.2602","REV_AT_EPOCH":"3134","INCLINATION":"53.2193","DECAY_DATE":null,"TIME_SYSTEM":"UTC","MEAN_ELEMENT_THEORY":"SGP4","MEAN_MOTION_DOT":"0.00001960","MEAN_MOTION":"15.08840570","NORAD_CAT_ID":"53404","SEMIMAJOR_AXIS":"6917.879","ELEMENT_SET_NO":"999","APOAPSIS":"540.781","EPHEMERIS_TYPE":"0","ECCENTRICITY":"0.00014990","OBJECT_TYPE":"PAYLOAD","RA_OF_ASC_NODE":"49.1639","BSTAR":"0.00014122000000","OBJECT_NAME":"STARLINK-4509","ARG_OF_PERICENTER":"85.8562","MEAN_MOTION_DDOT":"0.0000000000000","SITE":"AFETR"},{"OBJECT_ID":"2022-097T","CENTER_NAME":"EARTH","LAUNCH_DATE":"2022-08-10","GP_ID":"226915713","RCS_SIZE":"LARGE","TLE_LINE2":"2 53405  53.2162  57.9480 0001499  82.5168 277.5995 15.08839283 31256","REF_FRAME":"TEME","PERIAPSIS":"538.711","TLE_LINE1":"1 53405U 22097T   23056.72943540  .00009505  00000-0  61448-3 0  9992","COUNTRY_CODE":"US","EPOCH":"2023-02-25T17:30:23.218560","FILE":"3839003","CLASSIFICATION_TYPE":"U","SITE":"AFETR","MEAN_MOTION_DDOT":"0.0000000000000","ARG_OF_PERICENTER":"82.5168","OBJECT_NAME":"STARLINK-4510","BSTAR":"0.00061448000000","RA_OF_ASC_NODE":"57.9480","OBJECT_TYPE":"PAYLOAD","EPHEMERIS_TYPE":"0","ECCENTRICITY":"0.00014990","APOAPSIS":"540.785","ELEMENT_SET_NO":"999","SEMIMAJOR_AXIS":"6917.883","NORAD_CAT_ID":"53405","MEAN_MOTION":"15.08839283","MEAN_MOTION_DOT":"0.00009505","MEAN_ELEMENT_THEORY":"SGP4","DECAY_DATE":null,"TIME_SYSTEM":"UTC","INCLINATION":"53.2162","REV_AT_EPOCH":"3125","MEAN_ANOMALY":"277.5995","PERIOD":"95.438"},{"APOAPSIS":"540.662","ARG_OF_PERICENTER":"106.1556","MEAN_MOTION_DDOT":"0.0000000000000","SITE":"AFETR","OBJECT_NAME":"STARLINK-4533","OBJECT_TYPE":"PAYLOAD","RA_OF_ASC_NODE":"48.0543","BSTAR":"-0.00015787000000","EPHEMERIS_TYPE":"0","ECCENTRICITY":"0.00012760","INCLINATION":"53.2190","REV_AT_EPOCH":"3138","MEAN_ANOMALY":"253.9577","PERIOD":"95.438","NORAD_CAT_ID":"53406","SEMIMAJOR_AXIS":"6917.914","ELEMENT_SET_NO":"999","MEAN_MOTION_DOT":"-0.00002799","MEAN_MOTION":"15.08829049","MEAN_ELEMENT_THEORY":"SGP4","DECAY_DATE":null,"TIME_SYSTEM":"UTC","TLE_LINE2":"2 53406  53.2190  48.0543 0001276 106.1556 253.9577 15.08829049 31383","PERIAPSIS":"538.896","REF_FRAME":"TEME","OBJECT_ID":"2022-097U","CENTER_NAME":"EARTH","GP_ID":"226915963","LAUNCH_DATE":"2022-08-10","RCS_SIZE":"LARGE","CLASSIFICATION_TYPE":"U","FILE":"3839003","TLE_LINE1":"1 53406U 22097U   23056.70458937 -.00002799  00000-0 -15787-3 0  9997","EPOCH":"2023-02-25T16:54:36.521568","COUNTRY_CODE":"US"},{"APOAPSIS":"540.646","OBJECT_NAME":"STARLINK-4537","ARG_OF_PERICENTER":"92.1709","SITE":"AFETR","MEAN_MOTION_DDOT":"0.0000000000000","EPHEMERIS_TYPE":"0","ECCENTRICITY":"0.00012770","OBJECT_TYPE":"PAYLOAD","RA_OF_ASC_NODE":"37.3633","BSTAR":"-0.00000985150000","REV_AT_EPOCH":"3155","INCLINATION":"53.2177","PERIOD":"95.438","MEAN_ANOMALY":"267.9429","MEAN_MOTION_DOT":"-0.00000445","MEAN_MOTION":"15.08834462","NORAD_CAT_ID":"53407","SEMIMAJOR_AXIS":"6917.897","ELEMENT_SET_NO":"999","DECAY_DATE":null,"TIME_SYSTEM":"UTC","MEAN_ELEMENT_THEORY":"SGP4","TLE_LINE2":"2 53407  53.2177  37.3633 0001277  92.1709 267.9429 15.08834462 31550","PERIAPSIS":"538.879","REF_FRAME":"TEME","CENTER_NAME":"EARTH","OBJECT_ID":"2022-097V","RCS_SIZE":"LARGE","GP_ID":"226916712","LAUNCH_DATE":"2022-08-10","CLASSIFICATION_TYPE":"U","FILE":"3839003","TLE_LINE1":"1 53407U 22097V   23056.91162459 -.00000445  00000-0 -98515-5 0  9990","EPOCH":"2023-02-25T21:52:44.364576","COUNTRY_CODE":"US"},{"CLASSIFICATION_TYPE":"U","FILE":"3837605","TLE_LINE1":"1 53408U 22097W   23056.38443141  .00001970  00000-0  14181-3 0  9999","COUNTRY_CODE":"US","EPOCH":"2023-02-25T09:13:34.873824","TLE_LINE2":"2 53408  53.2172  49.4916 0001296 101.0796 259.0342 15.08840217 31338","REF_FRAME":"TEME","PERIAPSIS":"538.848","CENTER_NAME":"EARTH","OBJECT_ID":"2022-097W","RCS_SIZE":"LARGE","LAUNCH_DATE":"2022-08-10","GP_ID":"226858882","REV_AT_EPOCH":"3133","INCLINATION":"53.2172","PERIOD":"95.438","MEAN_ANOMALY":"259.0342","MEAN_MOTION":"15.08840217","MEAN_MOTION_DOT":"0.00001970","ELEMENT_SET_NO":"999","SEMIMAJOR_AXIS":"6917.880","NORAD_CAT_ID":"53408","DECAY_DATE":null,"TIME_SYSTEM":"UTC","MEAN_ELEMENT_THEORY":"SGP4","APOAPSIS":"540.641","OBJECT_NAME":"STARLINK-4491","MEAN_MOTION_DDOT":"0.0000000000000","SITE":"AFETR","ARG_OF_PERICENTER":"101.0796","EPHEMERIS_TYPE":"0","ECCENTRICITY":"0.00012960","BSTAR":"0.00014181000000","RA_OF_ASC_NODE":"49.4916","OBJECT_TYPE":"PAYLOAD"},{"TLE_LINE2":"2 53409  53.2183  37.6365 0001064 111.6691 248.4414 15.08839736 31541","REF_FRAME":"TEME","PERIAPSIS":"539.010","OBJECT_ID":"2022-097X","CENTER_NAME":"EARTH","LAUNCH_DATE":"2022-08-10","GP_ID":"226915213","RCS_SIZE":"LARGE","FILE":"3839003","CLASSIFICATION_TYPE":"U","TLE_LINE1":"1 53409U 22097X   23056.84169411 -.00001751  00000-0 -91980-4 0  9998","COUNTRY_CODE":"US","EPOCH":"2023-02-25T20:12:02.371104","APOAPSIS":"540.482","SITE":"AFETR","MEAN_MOTION_DDOT":"0.0000000000000","ARG_OF_PERICENTER":"111.6691","OBJECT_NAME":"STARLINK-4490","BSTAR":"-0.00009198000000","RA_OF_ASC_NODE":"37.6365","OBJECT_TYPE":"PAYLOAD","EPHEMERIS_TYPE":"0","ECCENTRICITY":"0.00010640","INCLINATION":"53.2183","REV_AT_EPOCH":"3154","MEAN_ANOMALY":"248.4414","PERIOD":"95.438","ELEMENT_SET_NO":"999","NORAD_CAT_ID":"53409","SEMIMAJOR_AXIS":"6917.881","MEAN_MOTION":"15.08839736","MEAN_MOTION_DOT":"-0.00001751","MEAN_ELEMENT_THEORY":"SGP4","DECAY_DATE":null,"TIME_SYSTEM":"UTC"},{"MEAN_ANOMALY":"264.4589","PERIOD":"95.438","INCLINATION":"53.2173","REV_AT_EPOCH":"3138","MEAN_ELEMENT_THEORY":"SGP4","TIME_SYSTEM":"UTC","DECAY_DATE":null,"ELEMENT_SET_NO":"999","NORAD_CAT_ID":"53410","SEMIMAJOR_AXIS":"6917.888","MEAN_MOTION":"15.08837644","MEAN_MOTION_DOT":"0.00005496","APOAPSIS":"540.738","BSTAR":"0.00036318000000","RA_OF_ASC_NODE":"48.0210","OBJECT_TYPE":"PAYLOAD","ECCENTRICITY":"0.00014250","EPHEMERIS_TYPE":"0","SITE":"AFETR","MEAN_MOTION_DDOT":"0.0000000000000","ARG_OF_PERICENTER":"95.6565","OBJECT_NAME":"STARLINK-4492","CLASSIFICATION_TYPE":"U","FILE":"3839003","COUNTRY_CODE":"US","EPOCH":"2023-02-25T17:05:12.846336","TLE_LINE1":"1 53410U 22097Y   23056.71195424  .00005496  00000-0  36318-3 0  9990","REF_FRAME":"TEME","PERIAPSIS":"538.767","TLE_LINE2":"2 53410  53.2173  48.0210 0001425  95.6565 264.4589 15.08837644 31388","LAUNCH_DATE":"2022-08-10","GP_ID":"226915463","RCS_SIZE":"LARGE","OBJECT_ID":"2022-097Y","CENTER_NAME":"EARTH"},{"REF_FRAME":"TEME","PERIAPSIS":"538.847","TLE_LINE2":"2 53411  53.2193  50.0711 0001321  91.2687 268.8456 15.08835083 31311","LAUNCH_DATE":"2022-08-10","GP_ID":"226859369","RCS_SIZE":"LARGE","OBJECT_ID":"2022-097Z","CENTER_NAME":"EARTH","CLASSIFICATION_TYPE":"U","FILE":"3837605","COUNTRY_CODE":"US","EPOCH":"2023-02-25T06:08:06.859680","TLE_LINE1":"1 53411U 22097Z   23056.25563495  .00000608  00000-0  56318-4 0  9990","APOAPSIS":"540.674","BSTAR":"0.00005631800000","RA_OF_ASC_NODE":"50.0711","OBJECT_TYPE":"PAYLOAD","EPHEMERIS_TYPE":"0","ECCENTRICITY":"0.00013210","MEAN_MOTION_DDOT":"0.0000000000000","SITE":"AFETR","ARG_OF_PERICENTER":"91.2687","OBJECT_NAME":"STARLINK-4497","MEAN_ANOMALY":"268.8456","PERIOD":"95.438","INCLINATION":"53.2193","REV_AT_EPOCH":"3131","MEAN_ELEMENT_THEORY":"SGP4","DECAY_DATE":null,"TIME_SYSTEM":"UTC","ELEMENT_SET_NO":"999","SEMIMAJOR_AXIS":"6917.895","NORAD_CAT_ID":"53411","MEAN_MOTION":"15.08835083","MEAN_MOTION_DOT":"0.00000608"},{"PERIOD":"95.437","MEAN_ANOMALY":"276.5332","REV_AT_EPOCH":"3138","INCLINATION":"53.2175","TIME_SYSTEM":"UTC","DECAY_DATE":null,"MEAN_ELEMENT_THEORY":"SGP4","MEAN_MOTION":"15.08841293","MEAN_MOTION_DOT":"0.00010316","ELEMENT_SET_NO":"999","NORAD_CAT_ID":"53412","SEMIMAJOR_AXIS":"6917.876","APOAPSIS":"540.725","EPHEMERIS_TYPE":"0","ECCENTRICITY":"0.00014220","BSTAR":"0.00066527000000","OBJECT_TYPE":"PAYLOAD","RA_OF_ASC_NODE":"48.0713","OBJECT_NAME":"STARLINK-4496","SITE":"AFETR","MEAN_MOTION_DDOT":"0.0000000000000","ARG_OF_PERICENTER":"83.5822","CLASSIFICATION_TYPE":"U","FILE":"3839003","COUNTRY_CODE":"US","EPOCH":"2023-02-25T16:49:19.138944","TLE_LINE1":"1 53412U 22097AA  23056.70091596  .00010316  00000-0  66527-3 0  9998","REF_FRAME":"TEME","PERIAPSIS":"538.758","TLE_LINE2":"2 53412  53.2175  48.0713 0001422  83.5822 276.5332 15.08841293 31384","RCS_SIZE":"LARGE","LAUNCH_DATE":"2022-08-10","GP_ID":"226916960","CENTER_NAME":"EARTH","OBJECT_ID":"2022-097AA"}];
